IRIDIUM 63              
1 25286U 98021B   25191.58367027  .00000248  00000+0  77868-4 0  9992
2 25286  86.3957  72.3158 0002081  90.4064 269.7371 14.36558809427202
IRIDIUM 69              
1 25319U 98026A   25191.45508662  .00000323  00000+0  94420-4 0  9999
2 25319  86.3960  85.5910 0001650  11.4416 348.6821 14.40985566426418
IRIDIUM 71              
1 25320U 98026B   25191.59774149  .00000270  00000+0  77419-4 0  9991
2 25320  86.3955  80.2167 0003380  47.9426 312.2061 14.41173050426968
IRIDIUM 73              
1 25344U 98032C   25191.56626886  .00000331  00000+0  77397-4 0  9998
2 25344  86.4396  36.8836 0001568  85.8239 274.3146 14.51733484433956
IRIDIUM 82              
1 25467U 98051A   25191.46587327  .00011285  00000+0  31554-3 0  9994
2 25467  86.3670  98.2855 0082105 206.0634 153.6473 15.33098895427520
